STARLINK-1599
1 16143C 20057AC  21326.09728050  .00724073  00000-0  11249-1 0  3262
2 16143  53.0546 128.5293 0001811  38.6941 230.9809 15.52614998    17
